STARLINK-1224           
1 45186U 20012J   24282.54000649  .00056048  00000+0  37429-2 0  9994
2 45186  53.0542 208.1924 0001767  78.0029 282.1158 15.06488015256837
STARLINK-1225           
1 45187U 20012K   24282.07928871  .00010819  00000+0  74362-3 0  9993
2 45187  53.0537 210.2615 0001252  77.5406 282.5723 15.06424144256818
STARLINK-1228           
1 45188U 20012L   24282.41003734  .00083877  00000+0  55729-2 0  9993
2 45188  53.0524 168.4588 0002739  78.2619 281.8677 15.06468453257387
STARLINK-1230           
1 45189U 20012M   24282.08297238  .00008985  00000+0  62124-3 0  9996
2 45189  53.0535 210.2445 0001237  81.6504 278.4625 15.06403241254040
STARLINK-1234           
1 45190U 20012N   24281.96870215  .00057044  00000+0  38077-2 0  9995
2 45190  53.0529 170.7555 0001555  78.0962 282.0201 15.06496579257262
STARLINK-1236           
1 45191U 20012P   24282.48842006  .00020258  00000+0  13737-2 0  9994
2 45191  53.0535 208.4270 0001181  98.0571 262.0552 15.06433871254097
STARLINK-1237           
1 45192U 20012Q   24282.52896432  .00060029  00000+0  40075-2 0  9997
2 45192  53.0523 208.2444 0001591  87.4240 272.6931 15.06466843256899
STARLINK-1240           
1 45194U 20012S   24282.52159019  .00023250  00000+0  15729-2 0  9995
2 45194  53.0529 208.2757 0001072  95.6771 264.4340 15.06440102256789
STARLINK-1244           
1 45196U 20012U   24282.50316110  .00042439  00000+0  28464-2 0  9992
2 45196  53.0531 208.3604 0001263 102.4810 257.6320 15.06458476256931
STARLINK-1269           
1 45197U 20012V   24282.49210774  .00038622  00000+0  25955-2 0  9991
2 45197  53.0545 208.4086 0001338  86.3790 273.7352 15.06429967256850
STARLINK-1154           
1 45198U 20012W   24282.48289307  .00121340  00000+0  80130-2 0  9995
2 45198  53.0537 188.4496 0001446  98.6224 261.4929 15.06460381257100
STARLINK-1199           
1 45201U 20012Z   24282.02952853  .00005387  00000+0  37999-3 0  9991
2 45201  53.0532 190.4861 0001278  78.1324 281.9809 15.06425239257091
STARLINK-1206           
1 45204U 20012AC  24282.45339743  .00068074  00000+0  45333-2 0  9990
2 45204  53.0521 188.5842 0001054 106.8772 253.2332 15.06496392257177
STARLINK-1208           
1 45205U 20012AD  24282.47551714  .00022951  00000+0  15539-2 0  9996
2 45205  53.0538 188.4843 0000771 102.2848 257.8227 15.06418869257182
STARLINK-1209           
1 45206U 20012AE  24281.97238736  .00032035  00000+0  21568-2 0  9990
2 45206  53.0533 170.7401 0001579  72.1712 287.9450 15.06450708256419
STARLINK-1210           
1 45207U 20012AF  24282.44605306  .00191492  00000+0  11273-1 0  9999
2 45207  53.0541 188.0849 0003631 138.8727 221.2538 15.10281151257164
STARLINK-1219           
1 45210U 20012AJ  24282.43497404  .00028908  00000+0  19505-2 0  9998
2 45210  53.0545 188.6666 0001454  95.0434 265.0721 15.06421947257046
STARLINK-1231           
1 45212U 20012AL  24282.46814701  .00112959  00000+0  74771-2 0  9992
2 45212  53.0519 188.5163 0002532  82.8073 277.3204 15.06422648257110
STARLINK-1271           
1 45217U 20012AR  24282.47919190  .00125246  00000+0  82648-2 0  9991
2 45217  53.0534 188.4648 0002056  86.8001 273.3223 15.06464230257160
STARLINK-1187           
1 45219U 20012AT  24282.41102618  .00009102  00000+0  62885-3 0  9990
2 45219  53.0534 168.7833 0001675  88.0035 272.1146 15.06419150257449
STARLINK-1189           
1 45221U 20012AV  24282.41470699  .00216755  00000+0  14105-1 0  9994
2 45221  53.0519 168.7576 0003202  70.3572 289.7763 15.06464108257438
STARLINK-1191           
1 45222U 20012AW  24282.42206495  .00220280  00000+0  14324-1 0  9998
2 45222  53.0527 168.7221 0002641  76.9704 283.1580 15.06471986257437
STARLINK-1212           
1 45223U 20012AX  24282.10885320  .00049224  00000+0  32939-2 0  9994
2 45223  53.0530 170.7830 0001200 100.5728 259.5396 15.06474653257381
STARLINK-1215           
1 45225U 20012AZ  24282.39625568  .00120243  00000+0  79258-2 0  9999
2 45225  53.0521 168.8382 0000734  33.7875 326.3161 15.06535545257385
STARLINK-1217           
1 45226U 20012BA  24282.40363152  .00079937  00000+0  53102-2 0  9993
2 45226  53.0524 168.8074 0001331  83.3381 276.7759 15.06502932257345
STARLINK-1221           
1 45227U 20012BB  24282.08114974  .00039946  00000+0  18945-2 0  9996
2 45227  53.0530 165.2425 0004822 148.9681 211.1599 15.18913637257372
STARLINK-1222           
1 45228U 20012BC  24282.42943868  .00119340  00000+0  78710-2 0  9990
2 45228  53.0532 168.6844 0002021 101.7934 258.3282 15.06518642257325
STARLINK-1226           
1 45229U 20012BD  24282.39258433  .00089365  00000+0  59276-2 0  9993
2 45229  53.0515 168.8567 0001742  72.7193 287.3986 15.06494879257322
STARLINK-1227           
1 45230U 20012BE  24282.38889533  .00086573  00000+0  57426-2 0  9998
2 45230  53.0520 168.8702 0001574  79.5730 280.5436 15.06512405257440
STARLINK-1235           
1 45232U 20012BG  24282.29688069  .00180450  00000+0  48772-2 0  9994
2 45232  53.0648 136.3150 0012855 113.7739 246.4613 15.36485972257892
STARLINK-1238           
1 45233U 20012BH  24282.44508400  .00053015  00000+0  35436-2 0  9991
2 45233  53.0520 188.6090 0001304  83.6909 276.4228 15.06481111257147
STARLINK-1246           
1 45235U 20012BK  24282.07188028  .00053476  00000+0  35896-2 0  9993
2 45235  53.0531 210.2955 0001105 125.2370 234.8722 15.06320040256843
STARLINK-1247           
1 45236U 20012BL  24282.38518980  .00084989  00000+0  56347-2 0  9999
2 45236  53.0519 168.8884 0001177 101.6743 258.4378 15.06541550256491
STARLINK-1270           
1 45237U 20012BM  24282.40733734  .00052076  00000+0  34859-2 0  9995
2 45237  53.0515 168.7919 0002104  74.6140 285.5081 15.06434954257433
STARLINK-1279           
1 45360U 20019A   24282.43220359  .00062305  00000+0  41575-2 0  9995
2 45360  53.0542 298.6782 0001473  92.8589 267.2569 15.06466177252174
STARLINK-1301           
1 45361U 20019B   24282.48656319  .00047249  00000+0  31637-2 0  9998
2 45361  53.0549 308.4339 0001355  84.7557 275.3587 15.06470811252051
STARLINK-1306           
1 45362U 20019C   24282.39993772  .00007251  00000+0  50462-3 0  9993
2 45362  53.0561 328.8215 0001271 102.1124 258.0007 15.06438809251759
STARLINK-1313           
1 45364U 20019E   24282.58334491  .00272220  00000+0  23176-2 0  9994
2 45364  53.0112 204.4947 0009902 114.0377 121.7761 15.68156191  6003
STARLINK-1262           
1 45366U 20019G   24282.45155059  .00085201  00000+0  56547-2 0  9992
2 45366  53.0547 328.5908 0001621  77.5888 282.5282 15.06500822251778
STARLINK-1273           
1 45367U 20019H   24282.40731846  .00100944  00000+0  66771-2 0  9994
2 45367  53.0550 328.7912 0001235  83.9149 276.1981 15.06523597251760
STARLINK-1276           
1 45368U 20019J   24282.44419059  .00027117  00000+0  18304-2 0  9997
2 45368  53.0545 328.6207 0001504  94.3943 265.7217 15.06440237251774
STARLINK-1277           
1 45369U 20019K   24282.43689653  .00019452  00000+0  13202-2 0  9991
2 45369  53.0542 329.2777 0001208  82.9786 277.1340 15.06427809251763
STARLINK-1281           
1 45370U 20019L   24282.43311750  .00092009  00000+0  60981-2 0  9998
2 45370  53.0555 328.6721 0001638  72.5155 287.6013 15.06507643251772
STARLINK-1295           
1 45373U 20019P   24282.45087184  .00033868  00000+0  22098-2 0  9999
2 45373  53.0544 328.5122 0002006  56.7625 303.3556 15.07585064251775
STARLINK-1300           
1 45374U 20019Q   24282.45525741  .00063500  00000+0  42383-2 0  9991
2 45374  53.0541 328.5749 0001467  84.1104 276.0052 15.06447364251771
STARLINK-1302           
1 45375U 20019R   24282.40363522  .00109221  00000+0  72135-2 0  9993
2 45375  53.0549 328.8077 0001774  79.4532 280.6657 15.06529407251760
STARLINK-1304           
1 45376U 20019S   24282.42206432  .00095328  00000+0  63125-2 0  9993
2 45376  53.0560 328.7203 0001775  88.3335 271.7857 15.06518763251761
STARLINK-1305           
1 45377U 20019T   24282.44786360  .00086223  00000+0  57207-2 0  9997
2 45377  53.0546 328.6074 0001638  85.0054 275.1122 15.06506129251778
STARLINK-1319           
1 45379U 20019V   24282.44050802  .00007600  00000+0  52849-3 0  9994
2 45379  53.0553 328.6372 0001552  82.9852 277.1313 15.06407051251774
STARLINK-1207           
1 45380U 20019W   24282.37230820  .00013476  00000+0  92131-3 0  9994
2 45380  53.0543 308.9501 0001541  81.4611 278.6552 15.06422193252030
STARLINK-1258           
1 45381U 20019X   24282.38335309  .00106182  00000+0  70173-2 0  9992
2 45381  53.0543 308.8948 0001615  90.3336 269.7839 15.06524314252037
STARLINK-1266           
1 45383U 20019Z   24282.37599329  .00052059  00000+0  34811-2 0  9999
2 45383  53.0552 308.9314 0001627  77.5275 282.5896 15.06474716252035
STARLINK-1267           
1 45384U 20019AA  24282.36132994  .00081599  00000+0  54178-2 0  9999
2 45384  53.0549 309.6531 0001557  96.4048 263.7118 15.06510739252024
STARLINK-1272           
1 45386U 20019AC  24282.36862375  .00078151  00000+0  51964-2 0  9994
2 45386  53.0557 308.9643 0001954  92.3592 267.7621 15.06480171252031
STARLINK-1274           
1 45387U 20019AD  24282.39074066  .00068090  00000+0  45376-2 0  9991
2 45387  53.0543 308.8650 0001536  89.0905 271.0260 15.06469557252033
STARLINK-1280           
1 45388U 20019AE  24282.42573478  .00009160  00000+0  63219-3 0  9997
2 45388  53.0549 328.7021 0001616  89.7969 270.3205 15.06450279251759
STARLINK-1283           
1 45389U 20019AF  24282.53816665  .00040922  00000+0  27449-2 0  9993
2 45389  53.0539 308.2011 0001431  93.2872 266.8281 15.06471938252063
STARLINK-1284           
1 45390U 20019AG  24282.37967588  .00047897  00000+0  32066-2 0  9997
2 45390  53.0556 308.9135 0001655 103.0213 257.0961 15.06469875252036
STARLINK-1291           
1 45393U 20019AK  24282.49025558  .00013605  00000+0  93007-3 0  9998
2 45393  53.0550 308.4120 0001703  97.1687 262.9496 15.06416296251816
